OBJECT_NAME,OBJECT_ID,EPOCH,MEAN_MOTION,ECCENTRICITY,INCLINATION,RA_OF_ASC_NODE,ARG_OF_PERICENTER,MEAN_ANOMALY,EPHEMERIS_TYPE,CLASSIFICATION_TYPE,NORAD_CAT_ID,ELEMENT_SET_NO,REV_AT_EPOCH,BSTAR,MEAN_MOTION_DOT,MEAN_MOTION_DDOT
PERSEUS-M1,2014-033AF,2026-06-07T19:17:04.866720,14.95606924,.0010797,97.9642,102.7818,337.2410,22.8330,0,U,40039,999,64923,.22194E-3,.2406E-4,0
POLYITAN-1,2014-033AJ,2026-06-08T01:05:03.222816,15.32938693,.0007909,98.0952,184.4437,168.1396,192.0032,0,U,40042,999,65219,.59961E-3,.19032E-3,0
TIGRISAT,2014-033AK,2026-06-08T03:43:13.001376,14.85126633,.0050717,97.7825,309.3746,104.0252,256.6609,0,U,40043,999,64428,.28416E-3,.2433E-4,0
AEROCUBE 6A,2014-033AM,2026-06-08T00:09:07.092576,14.98009332,.0039374,97.7225,326.0535,48.3680,312.0903,0,U,40045,999,64524,.57471E-3,.6838E-4,0
AEROCUBE 6B,2014-033AN,2026-06-08T00:25:22.449216,14.99472316,.0039053,97.7231,325.8341,40.3592,320.0517,0,U,40046,999,64538,.60319E-3,.746E-4,0
CANX-4,2014-034C,2026-06-07T23:09:33.928128,14.81248580,.0013752,98.3134,33.9390,45.0821,315.1504,0,U,40055,999,64316,.1493E-3,.1108E-4,0
CANX-5,2014-034D,2026-06-08T02:22:00.513984,14.81266002,.0013746,98.3136,34.1207,44.8140,315.4179,0,U,40056,999,63399,.14925E-3,.1108E-4,0
UKUBE-1,2014-037F,2026-06-07T23:28:58.205280,15.13407368,.0002064,98.4241,161.2838,144.6148,215.5218,0,U,40074,999,64716,.50869E-3,.9011E-4,0
BRITE-PL2 (HEWELIUSZ),2014-049B,2026-06-07T19:11:06.444096,14.94563277,.0015142,97.9088,270.7280,136.5124,223.7293,0,U,40119,999,64004,.27515E-3,.2922E-4,0
AEROCUBE 5C,2015-058B,2026-06-07T18:47:56.111712,14.91410167,.0130387,64.7679,291.8442,66.9648,294.5152,0,U,40965,999,36425,.29173E-3,.3263E-4,0
AEROCUBE 7,2015-058C,2026-06-07T16:08:41.661024,14.95665181,.0120113,64.7628,274.6159,65.4910,295.8672,0,U,40966,999,36453,.34427E-3,.426E-4,0
FOX-1A (AO-85),2015-058D,2026-06-07T18:15:28.569312,14.90923768,.0129935,64.7762,308.2774,60.2802,301.1167,0,U,40967,999,11216,.28859E-3,.3179E-4,0
SINOD-D 1,2015-058E,2026-06-07T17:14:51.597600,14.95844977,.01185,64.7758,288.5630,56.8567,304.3850,0,U,40968,999,11524,.35022E-3,.4342E-4,0
SNAP-3 ALICE,2015-058G,2026-06-08T03:06:07.630272,15.58019153,.0030723,64.7501,135.1931,17.5046,342.7150,0,U,40970,999,11547,.16869E-2,.132025E-2,0
LMRST-SAT,2015-058H,2026-06-08T02:47:21.285312,14.90549575,.0131615,64.7765,303.4934,62.1648,299.2728,0,U,40971,999,11220,.28277E-3,.3092E-4,0
SNAP-3 EDDIE,2015-058J,2026-06-08T04:34:20.751744,15.59200283,.0030595,64.7422,125.7723,21.6245,338.6184,0,U,40972,999,11762,.12325E-2,.100423E-2,0
PROPCUBE 3,2015-058K,2026-06-07T18:32:21.126336,14.94205306,.0123617,64.7694,281.9498,63.6528,297.7217,0,U,40973,999,11339,.32023E-3,.3824E-4,0
BISONSAT,2015-058L,2026-06-07T11:14:37.223232,15.15991596,.0078343,64.7587,205.0602,51.2611,309.5481,0,U,40974,999,11414,.50096E-3,.10253E-3,0
SNAP-3 JIMI,2015-058M,2026-06-07T14:28:21.802368,15.02216903,.0105647,64.7649,250.0943,59.2946,301.8529,0,U,40975,999,11278,.3873E-3,.5594E-4,0
PROPCUBE 1 (FLORA),2015-058N,2026-06-07T20:40:20.271936,14.89178132,.0130344,64.7759,324.1389,64.5742,296.8792,0,U,40976,999,11487,.29617E-3,.3117E-4,0
SINOD-D 3,2015-058P,2026-06-08T03:17:43.690272,14.93957578,.0118853,64.7736,304.0780,61.7349,299.5699,0,U,40977,999,11340,.30324E-3,.3545E-4,0
HORYU-4,2016-012D,2026-06-07T15:50:33.219744,15.89027763,.0002832,30.9848,148.6331,206.9121,153.1392,0,U,41340,999,56929,.10211E-2,.317249E-2,0
RAVAN,2016-067B,2026-06-08T03:49:00.968736,15.53810907,.0005734,97.9898,47.6935,56.0221,304.1575,0,U,41849,999,52629,.684E-3,.44015E-3,0
CELTEE 1,2016-067C,2026-06-07T14:14:38.942592,15.19589092,.0000604,98.0684,24.5061,94.7001,265.4301,0,U,41850,999,52442,.28566E-3,.6003E-4,0
OPTICUBE 04,2016-067D,2026-06-08T03:08:45.534912,15.09621673,.0016428,98.0712,10.9424,144.2264,216.0067,0,U,41851,999,52380,.17761E-3,.2793E-4,0
AEROCUBE 8D,2016-067E,2026-06-08T03:53:50.573760,15.24271394,.0004126,98.0698,28.6474,145.6615,214.4887,0,U,41852,999,52469,.26754E-3,.6453E-4,0
AEROCUBE 8C,2016-067F,2026-06-08T02:57:25.379424,15.24518763,.0006821,98.0568,25.8445,93.2259,266.9757,0,U,41853,999,52468,.35506E-3,.866E-4,0
CORVUS BC2,2017-042X,2026-06-08T00:39:21.713760,15.06239540,.0014202,97.4062,320.7350,138.2076,222.0239,0,U,42846,999,48568,.23448E-3,.3387E-4,0
CORVUS BC1,2017-042Y,2026-06-08T00:33:05.508288,15.06406941,.001333,97.4086,321.5388,117.0197,243.2393,0,U,42847,999,48571,.22909E-3,.3322E-4,0
MAKERSAT 0,2017-073D,2026-06-07T15:26:30.137568,15.31756990,.0106135,97.4640,41.0894,307.5668,51.5969,0,U,43016,999,46500,.58054E-3,.21201E-3,0
